NORAD_CAT_ID,OBJECT_NAME,OBJECT_TYPE,EPOCH,MEAN_MOTION,ECCENTRICITY,INCLINATION,RA_OF_ASC_NODE,ARG_OF_PERICENTER,MEAN_ANOMALY,BSTAR,MEAN_MOTION_DOT,MEAN_MOTION_DDOT,TLE_LINE0,TLE_LINE1,TLE_LINE2,SEMIMAJOR_AXIS,PERIOD,APOGEE,PERIGEE,DECAYED
54759.0,STARLINK-5215,PAYLOAD,2024-02-01 16:19:50,15.08840491,0.0001808,53.2173,242.5878,114.1656,245.9525,-0.00024625,-4.205e-05,0.0,0 STARLINK-5215,1 54759U 22175B   24032.68044662 -.00004205  00000-0 -24625-3 0  9999,2 54759  53.2173 242.5878 0001808 114.1656 245.9525 15.08840491 62033,6917.879,95.438,540.995,538.493,0.0
54759.0,STARLINK-5215,PAYLOAD,2024-02-01 22:41:22,15.08848244,0.0001795,53.2157,241.396,109.9367,250.1818,-0.00024975,-4.262e-05,0.0,0 STARLINK-5215,1 54759U 22175B   24032.94540144 -.00004262  00000-0 -24975-3 0  9995,2 54759  53.2157 241.3960 0001795 109.9367 250.1818 15.08848244 64231,6917.855,95.437,540.962,538.478,0.0
54759.0,STARLINK-5215,PAYLOAD,2024-02-02 19:21:23,15.08831826,0.0001085,53.216,237.5337,81.0521,279.0594,0.00018667,2.684e-05,0.0,0 STARLINK-5215,1 54759U 22175B   24033.80652427  .00002684  00000-0  18667-3 0  9994,2 54759  53.2160 237.5337 0001085  81.0521 279.0594 15.08831826 62208,6917.905,95.438,540.521,539.02,0.0
54759.0,STARLINK-5215,PAYLOAD,2024-02-02 20:56:46,15.08832316,0.0001065,53.2158,237.236,78.1238,281.9874,0.00019102,2.753e-05,0.0,0 STARLINK-5215,1 54759U 22175B   24033.87276444  .00002753  00000-0  19102-3 0  9994,2 54759  53.2158 237.2360 0001065  78.1238 281.9874 15.08832316 64376,6917.904,95.438,540.506,539.032,0.0
54759.0,STARLINK-5215,PAYLOAD,2024-02-02 22:32:09,15.08833514,0.0001068,53.2157,236.9378,78.0555,282.0557,0.00020244,2.935e-05,0.0,0 STARLINK-5215,1 54759U 22175B   24033.93900417  .00002935  00000-0  20244-3 0  9996,2 54759  53.2157 236.9378 0001068  78.0555 282.0557 15.08833514 64386,6917.9,95.438,540.504,539.026,0.0
54759.0,STARLINK-5215,PAYLOAD,2024-02-03 20:47:34,15.08834509,0.0001155,53.2158,232.7732,76.1543,283.9578,0.00010254,1.344e-05,0.0,0 STARLINK-5215,1 54759U 22175B   24034.86637241  .00001344  00000-0  10254-3 0  9994,2 54759  53.2158 232.7732 0001155  76.1543 283.9578 15.08834509 62362,6917.897,95.438,540.561,538.963,0.0
54759.0,STARLINK-5215,PAYLOAD,2024-02-03 22:22:57,15.08835143,0.0001159,53.2158,232.4755,76.2969,283.8152,0.00010618,1.402e-05,0.0,0 STARLINK-5215,1 54759U 22175B   24034.93261220  .00001402  00000-0  10618-3 0  9991,2 54759  53.2158 232.4755 0001159  76.2969 283.8152 15.08835143 64534,6917.895,95.438,540.562,538.958,0.0
54759.0,STARLINK-5215,PAYLOAD,2024-02-04 12:41:25,15.08842131,0.0001355,53.2163,229.8006,67.3774,292.7362,9.95e-05,1.296e-05,0.0,0 STARLINK-5215,1 54759U 22175B   24035.52877056  .00001296  00000-0  99500-4 0  9996,2 54759  53.2163 229.8006 0001355  67.3774 292.7362 15.08842131 64629,6917.874,95.437,540.676,538.802,0.0
54759.0,STARLINK-5215,PAYLOAD,2024-02-04 19:02:58,15.08845808,0.0001367,53.2162,228.6127,66.5048,293.6088,0.00012448,1.694e-05,0.0,0 STARLINK-5215,1 54759U 22175B   24035.79372734  .00001694  00000-0  12448-3 0  9995,2 54759  53.2162 228.6127 0001367  66.5048 293.6088 15.08845808 62501,6917.863,95.437,540.673,538.782,0.0
54759.0,STARLINK-5215,PAYLOAD,2024-02-05 12:32:12,15.08844504,0.0001165,53.2158,225.3415,83.4525,276.6599,0.00012429,1.691e-05,0.0,0 STARLINK-5215,1 54759U 22175B   24036.52236663  .00001691  00000-0  12429-3 0  9993,2 54759  53.2158 225.3415 0001165  83.4525 276.6599 15.08844504 64775,6917.867,95.437,540.538,538.926,0.0
54759.0,STARLINK-5215,PAYLOAD,2024-02-05 18:53:44,15.08845207,0.000116,53.2158,224.1518,84.6569,275.4555,0.00012347,1.678e-05,0.0,0 STARLINK-5215,1 54759U 22175B   24036.78732578  .00001678  00000-0  12347-3 0  9991,2 54759  53.2158 224.1518 0001160  84.6569 275.4555 15.08845207 64817,6917.864,95.437,540.532,538.927,0.0
54759.0,STARLINK-5215,PAYLOAD,2024-02-06 12:22:59,15.0884287,0.0001308,53.2162,220.881,79.5702,280.5438,4.777e-05,4.72e-06,0.0,0 STARLINK-5215,1 54759U 22175B   24037.51596883  .00000472  00000-0  47770-4 0  9990,2 54759  53.2162 220.8810 0001308  79.5702 280.5438 15.08842870 62768,6917.872,95.437,540.641,538.832,0.0
54759.0,STARLINK-5215,PAYLOAD,2024-02-06 18:44:32,15.08841825,0.0001272,53.2159,219.6913,81.2851,278.8285,2.3713e-05,9e-07,0.0,0 STARLINK-5215,1 54759U 22175B   24037.78092863  .00000090  00000-0  23713-4 0  9995,2 54759  53.2159 219.6913 0001272  81.2851 278.8285 15.08841825 64962,6917.875,95.437,540.62,538.86,0.0
54759.0,STARLINK-5215,PAYLOAD,2024-02-07 12:13:46,15.0883921,0.0001334,53.2156,216.4205,75.1993,284.9147,3.3127e-05,2.39e-06,0.0,0 STARLINK-5215,1 54759U 22175B   24038.50957047  .00000239  00000-0  33127-4 0  9995,2 54759  53.2156 216.4205 0001334  75.1993 284.9147 15.08839210 65079,6917.883,95.438,540.671,538.825,0.0
54759.0,STARLINK-5215,PAYLOAD,2024-02-07 18:35:19,15.08841574,0.0001223,53.2157,215.2295,89.0954,271.0178,3.2561e-05,2.3e-06,0.0,0 STARLINK-5215,1 54759U 22175B   24038.77452795  .00000230  00000-0  32561-4 0  9996,2 54759  53.2157 215.2295 0001223  89.0954 271.0178 15.08841574 62955,6917.876,95.437,540.587,538.895,0.0
54759.0,STARLINK-5215,PAYLOAD,2024-02-07 21:46:05,15.08842103,0.0001263,53.2159,214.6354,92.548,267.5657,5.0749e-05,5.2e-06,0.0,0 STARLINK-5215,1 54759U 22175B   24038.90700686  .00000520  00000-0  50749-4 0  9996,2 54759  53.2159 214.6354 0001263  92.5480 267.5657 15.08842103 65137,6917.874,95.437,540.613,538.865,0.0
54759.0,STARLINK-5215,PAYLOAD,2024-02-08 04:07:38,15.08834495,0.0001186,53.215,213.444,83.5855,276.5272,2.252e-05,7.1e-07,0.0,0 STARLINK-5215,1 54759U 22175B   24039.17197312  .00000071  00000-0  22520-4 0  9999,2 54759  53.2150 213.4440 0001186  83.5855 276.5272 15.08834495 63014,6917.897,95.438,540.583,538.942,0.0
54759.0,STARLINK-5215,PAYLOAD,2024-02-08 12:04:34,15.08829904,0.0001282,53.2154,211.9579,87.4603,272.6536,-1.8227e-06,-3.17e-06,0.0,0 STARLINK-5215,1 54759U 22175B   24039.50317896 -.00000317  00000-0 -18227-5 0  9992,2 54759  53.2154 211.9579 0001282  87.4603 272.6536 15.08829904 65229,6917.911,95.438,540.663,538.889,0.0
54759.0,STARLINK-5215,PAYLOAD,2024-02-08 18:26:07,15.08832043,0.00013,53.2157,210.7686,87.2688,272.8453,1.1742e-05,-1.01e-06,0.0,0 STARLINK-5215,1 54759U 22175B   24039.76813835 -.00000101  00000-0  11742-4 0  9998,2 54759  53.2157 210.7686 0001300  87.2688 272.8453 15.08832043 65262,6917.905,95.438,540.669,538.87,0.0
54759.0,STARLINK-5215,PAYLOAD,2024-02-09 11:55:21,15.08840433,0.000126,53.2158,207.4974,86.5991,273.5146,6.8203e-05,7.98e-06,0.0,0 STARLINK-5215,1 54759U 22175B   24040.49677350  .00000798  00000-0  68203-4 0  9995,2 54759  53.2158 207.4974 0001260  86.5991 273.5146 15.08840433 63212,6917.879,95.438,540.616,538.872,0.0
54759.0,STARLINK-5215,PAYLOAD,2024-02-10 10:10:45,15.08834146,0.0001234,53.2162,203.3359,101.0801,259.033,0.00011494,1.542e-05,0.0,0 STARLINK-5215,1 54759U 22175B   24041.42413750  .00001542  00000-0  11494-3 0  9998,2 54759  53.2162 203.3359 0001234 101.0801 259.0330 15.08834146 63356,6917.898,95.438,540.617,538.91,0.0
54759.0,STARLINK-5215,PAYLOAD,2024-02-10 18:07:41,15.08836844,0.0001064,53.2156,201.8466,104.1591,255.9519,6.0894e-05,6.81e-06,0.0,0 STARLINK-5215,1 54759U 22175B   24041.75533878  .00000681  00000-0  60894-4 0  9990,2 54759  53.2156 201.8466 0001064 104.1591 255.9519 15.08836844 65568,6917.89,95.438,540.491,539.019,0.0
54759.0,STARLINK-5215,PAYLOAD,2024-02-11 14:47:41,15.088258,0.0001318,53.2159,197.9825,88.6552,271.4591,0.00042337,6.454e-05,0.0,0 STARLINK-5215,1 54759U 22175B   24042.61645474  .00006454  00000-0  42337-3 0  9997,2 54759  53.2159 197.9825 0001318  88.6552 271.4591 15.08825800 65697,6917.924,95.438,540.701,538.877,0.0
54759.0,STARLINK-5215,PAYLOAD,2024-02-11 17:58:26,15.08858869,0.0001168,53.217,197.3862,94.2233,265.8893,0.00018795,2.706e-05,0.0,0 STARLINK-5215,1 54759U 22175B   24042.74892099  .00002706  00000-0  18795-3 0  9995,2 54759  53.2170 197.3862 0001168  94.2233 265.8893 15.08858869 63553,6917.823,95.436,540.496,538.88,0.0
54759.0,STARLINK-5215,PAYLOAD,2024-02-12 09:52:19,15.08839882,0.0001177,53.2178,194.4139,87.0006,273.112,7.9449e-05,9.77e-06,0.0,0 STARLINK-5215,1 54759U 22175B   24043.41133540  .00000977  00000-0  79449-4 0  9991,2 54759  53.2178 194.4139 0001177  87.0006 273.1120 15.08839882 63654,6917.881,95.438,540.56,538.932,0.0
54759.0,STARLINK-5215,PAYLOAD,2024-02-12 14:38:28,15.08842442,0.0001118,53.217,193.5211,93.9975,266.1144,8.5711e-05,1.077e-05,0.0,0 STARLINK-5215,1 54759U 22175B   24043.61005303  .00001077  00000-0  85711-4 0  9999,2 54759  53.2170 193.5211 0001118  93.9975 266.1144 15.08842442 65840,6917.873,95.437,540.511,538.965,0.0
54759.0,STARLINK-5215,PAYLOAD,2024-02-12 16:13:51,15.08842312,0.0001291,53.2163,193.2254,77.5724,282.5413,0.0001137,1.522e-05,0.0,0 STARLINK-5215,1 54759U 22175B   24043.67629365  .00001522  00000-0  11370-3 0  9999,2 54759  53.2163 193.2254 0001291  77.5724 282.5413 15.08842312 65856,6917.873,95.437,540.631,538.845,0.0
54759.0,STARLINK-5215,PAYLOAD,2024-02-13 14:29:16,15.088428,0.000145,53.2177,189.0623,97.5167,262.599,-6.2176e-05,-1.277e-05,0.0,0 STARLINK-5215,1 54759U 22175B   24044.60365784 -.00001277  00000-0 -62176-4 0  9995,2 54759  53.2177 189.0623 0001450  97.5167 262.5990 15.08842800 65999,6917.872,95.437,540.74,538.734,0.0
54759.0,STARLINK-5215,PAYLOAD,2024-02-13 19:15:25,15.08848425,0.0001463,53.2174,188.1687,95.5664,264.5495,-5.9372e-05,-1.233e-05,0.0,0 STARLINK-5215,1 54759U 22175B   24044.80237343 -.00001233  00000-0 -59372-4 0  9992,2 54759  53.2174 188.1687 0001463  95.5664 264.5495 15.08848425 63865,6917.855,95.437,540.732,538.708,0.0
54759.0,STARLINK-5215,PAYLOAD,2024-02-14 09:33:54,15.08834966,0.0001712,53.2175,185.4902,114.9544,245.1626,-2.9872e-05,-7.63e-06,0.0,0 STARLINK-5215,1 54759U 22175B   24045.39854200 -.00000763  00000-0 -29872-4 0  9993,2 54759  53.2175 185.4902 0001712 114.9544 245.1626 15.08834966 63952,6917.896,95.438,540.945,538.576,0.0
